<?xml version="1.0" encoding="UTF-8"?>
<ndm xmlns:xsi="http://www.w3.org/2001/XMLSchema-instance" xsi:noNamespaceSchemaLocation="https://sanaregistry.org/r/ndmxml_unqualified/ndmxml-2.0.0-master-2.0.xsd">
<omm id="CCSDS_OMM_VERS" version="2.0">
<header><CREATION_DATE/><ORIGINATOR/></header><body><segment><metadata><OBJECT_NAME>KUIPER-00136</OBJECT_NAME><OBJECT_ID>2025-228R</OBJECT_ID><CENTER_NAME>EARTH</CENTER_NAME><REF_FRAME>TEME</REF_FRAME><TIME_SYSTEM>UTC</TIME_SYSTEM><MEAN_ELEMENT_THEORY>SGP4</MEAN_ELEMENT_THEORY></metadata><data><meanElements><EPOCH>2025-12-25T04:00:01.998720</EPOCH><MEAN_MOTION>15.17515579</MEAN_MOTION><ECCENTRICITY>.0006795</ECCENTRICITY><INCLINATION>51.8858</INCLINATION><RA_OF_ASC_NODE>321.3413</RA_OF_ASC_NODE><ARG_OF_PERICENTER>71.3431</ARG_OF_PERICENTER><MEAN_ANOMALY>2.6488</MEAN_ANOMALY></meanElements><tleParameters><EPHEMERIS_TYPE>0</EPHEMERIS_TYPE><CLASSIFICATION_TYPE>U</CLASSIFICATION_TYPE><NORAD_CAT_ID>65962</NORAD_CAT_ID><ELEMENT_SET_NO>999</ELEMENT_SET_NO><REV_AT_EPOCH>195</REV_AT_EPOCH><BSTAR>-.57248E-1</BSTAR><MEAN_MOTION_DOT>-.1078685E-1</MEAN_MOTION_DOT><MEAN_MOTION_DDOT>0</MEAN_MOTION_DDOT></tleParameters></data></segment></body></omm>
<omm id="CCSDS_OMM_VERS" version="2.0">
<header><CREATION_DATE/><ORIGINATOR/></header><body><segment><metadata><OBJECT_NAME>KUIPER-00137</OBJECT_NAME><OBJECT_ID>2025-228S</OBJECT_ID><CENTER_NAME>EARTH</CENTER_NAME><REF_FRAME>TEME</REF_FRAME><TIME_SYSTEM>UTC</TIME_SYSTEM><MEAN_ELEMENT_THEORY>SGP4</MEAN_ELEMENT_THEORY></metadata><data><meanElements><EPOCH>2025-12-25T04:00:01.998720</EPOCH><MEAN_MOTION>15.30460285</MEAN_MOTION><ECCENTRICITY>.0006791</ECCENTRICITY><INCLINATION>51.8842</INCLINATION><RA_OF_ASC_NODE>320.8082</RA_OF_ASC_NODE><ARG_OF_PERICENTER>69.2026</ARG_OF_PERICENTER><MEAN_ANOMALY>314.6362</MEAN_ANOMALY></meanElements><tleParameters><EPHEMERIS_TYPE>0</EPHEMERIS_TYPE><CLASSIFICATION_TYPE>U</CLASSIFICATION_TYPE><NORAD_CAT_ID>65963</NORAD_CAT_ID><ELEMENT_SET_NO>999</ELEMENT_SET_NO><REV_AT_EPOCH>247</REV_AT_EPOCH><BSTAR>-.47101E-1</BSTAR><MEAN_MOTION_DOT>-.1289771E-1</MEAN_MOTION_DOT><MEAN_MOTION_DDOT>0</MEAN_MOTION_DDOT></tleParameters></data></segment></body></omm>
<omm id="CCSDS_OMM_VERS" version="2.0">
<header><CREATION_DATE/><ORIGINATOR/></header><body><segment><metadata><OBJECT_NAME>KUIPER-00138</OBJECT_NAME><OBJECT_ID>2025-228T</OBJECT_ID><CENTER_NAME>EARTH</CENTER_NAME><REF_FRAME>TEME</REF_FRAME><TIME_SYSTEM>UTC</TIME_SYSTEM><MEAN_ELEMENT_THEORY>SGP4</MEAN_ELEMENT_THEORY></metadata><data><meanElements><EPOCH>2025-12-24T15:10:45.026976</EPOCH><MEAN_MOTION>15.36298779</MEAN_MOTION><ECCENTRICITY>.00083072</ECCENTRICITY><INCLINATION>51.8810</INCLINATION><RA_OF_ASC_NODE>323.2598</RA_OF_ASC_NODE><ARG_OF_PERICENTER>70.1091</ARG_OF_PERICENTER><MEAN_ANOMALY>290.0790</MEAN_ANOMALY></meanElements><tleParameters><EPHEMERIS_TYPE>0</EPHEMERIS_TYPE><CLASSIFICATION_TYPE>U</CLASSIFICATION_TYPE><NORAD_CAT_ID>65964</NORAD_CAT_ID><ELEMENT_SET_NO>999</ELEMENT_SET_NO><REV_AT_EPOCH>1224</REV_AT_EPOCH><BSTAR>.11811627E-2</BSTAR><MEAN_MOTION_DOT>.42339E-3</MEAN_MOTION_DOT><MEAN_MOTION_DDOT>0</MEAN_MOTION_DDOT></tleParameters></data></segment></body></omm>
<omm id="CCSDS_OMM_VERS" version="2.0">
<header><CREATION_DATE/><ORIGINATOR/></header><body><segment><metadata><OBJECT_NAME>KUIPER-00140</OBJECT_NAME><OBJECT_ID>2025-228U</OBJECT_ID><CENTER_NAME>EARTH</CENTER_NAME><REF_FRAME>TEME</REF_FRAME><TIME_SYSTEM>UTC</TIME_SYSTEM><MEAN_ELEMENT_THEORY>SGP4</MEAN_ELEMENT_THEORY></metadata><data><meanElements><EPOCH>2025-12-25T04:00:01.998720</EPOCH><MEAN_MOTION>15.26400486</MEAN_MOTION><ECCENTRICITY>.0008053</ECCENTRICITY><INCLINATION>51.8820</INCLINATION><RA_OF_ASC_NODE>321.0725</RA_OF_ASC_NODE><ARG_OF_PERICENTER>62.9150</ARG_OF_PERICENTER><MEAN_ANOMALY>167.8587</MEAN_ANOMALY></meanElements><tleParameters><EPHEMERIS_TYPE>0</EPHEMERIS_TYPE><CLASSIFICATION_TYPE>U</CLASSIFICATION_TYPE><NORAD_CAT_ID>65965</NORAD_CAT_ID><ELEMENT_SET_NO>999</ELEMENT_SET_NO><REV_AT_EPOCH>567</REV_AT_EPOCH><BSTAR>-.85802E-2</BSTAR><MEAN_MOTION_DOT>-.220457E-2</MEAN_MOTION_DOT><MEAN_MOTION_DDOT>0</MEAN_MOTION_DDOT></tleParameters></data></segment></body></omm>
<omm id="CCSDS_OMM_VERS" version="2.0">
<header><CREATION_DATE/><ORIGINATOR/></header><body><segment><metadata><OBJECT_NAME>KUIPER-00141</OBJECT_NAME><OBJECT_ID>2025-228V</OBJECT_ID><CENTER_NAME>EARTH</CENTER_NAME><REF_FRAME>TEME</REF_FRAME><TIME_SYSTEM>UTC</TIME_SYSTEM><MEAN_ELEMENT_THEORY>SGP4</MEAN_ELEMENT_THEORY></metadata><data><meanElements><EPOCH>2025-12-25T03:06:02.410848</EPOCH><MEAN_MOTION>15.37036242</MEAN_MOTION><ECCENTRICITY>.0006305</ECCENTRICITY><INCLINATION>51.8804</INCLINATION><RA_OF_ASC_NODE>320.5944</RA_OF_ASC_NODE><ARG_OF_PERICENTER>70.1637</ARG_OF_PERICENTER><MEAN_ANOMALY>290.0028</MEAN_ANOMALY></meanElements><tleParameters><EPHEMERIS_TYPE>0</EPHEMERIS_TYPE><CLASSIFICATION_TYPE>U</CLASSIFICATION_TYPE><NORAD_CAT_ID>65966</NORAD_CAT_ID><ELEMENT_SET_NO>999</ELEMENT_SET_NO><REV_AT_EPOCH>1232</REV_AT_EPOCH><BSTAR>.89435E-3</BSTAR><MEAN_MOTION_DOT>.32683E-3</MEAN_MOTION_DOT><MEAN_MOTION_DDOT>0</MEAN_MOTION_DDOT></tleParameters></data></segment></body></omm>
<omm id="CCSDS_OMM_VERS" version="2.0">
<header><CREATION_DATE/><ORIGINATOR/></header><body><segment><metadata><OBJECT_NAME>KUIPER-00146</OBJECT_NAME><OBJECT_ID>2025-228W</OBJECT_ID><CENTER_NAME>EARTH</CENTER_NAME><REF_FRAME>TEME</REF_FRAME><TIME_SYSTEM>UTC</TIME_SYSTEM><MEAN_ELEMENT_THEORY>SGP4</MEAN_ELEMENT_THEORY></metadata><data><meanElements><EPOCH>2025-12-25T04:00:01.998720</EPOCH><MEAN_MOTION>15.34388535</MEAN_MOTION><ECCENTRICITY>.0008228</ECCENTRICITY><INCLINATION>51.8807</INCLINATION><RA_OF_ASC_NODE>320.6210</RA_OF_ASC_NODE><ARG_OF_PERICENTER>68.7010</ARG_OF_PERICENTER><MEAN_ANOMALY>39.0068</MEAN_ANOMALY></meanElements><tleParameters><EPHEMERIS_TYPE>0</EPHEMERIS_TYPE><CLASSIFICATION_TYPE>U</CLASSIFICATION_TYPE><NORAD_CAT_ID>65967</NORAD_CAT_ID><ELEMENT_SET_NO>999</ELEMENT_SET_NO><REV_AT_EPOCH>394</REV_AT_EPOCH><BSTAR>-.37746E-1</BSTAR><MEAN_MOTION_DOT>-.1164559E-1</MEAN_MOTION_DOT><MEAN_MOTION_DDOT>0</MEAN_MOTION_DDOT></tleParameters></data></segment></body></omm>
<omm id="CCSDS_OMM_VERS" version="2.0">
<header><CREATION_DATE/><ORIGINATOR/></header><body><segment><metadata><OBJECT_NAME>KUIPER-00149</OBJECT_NAME><OBJECT_ID>2025-228X</OBJECT_ID><CENTER_NAME>EARTH</CENTER_NAME><REF_FRAME>TEME</REF_FRAME><TIME_SYSTEM>UTC</TIME_SYSTEM><MEAN_ELEMENT_THEORY>SGP4</MEAN_ELEMENT_THEORY></metadata><data><meanElements><EPOCH>2025-12-25T03:08:46.086144</EPOCH><MEAN_MOTION>15.36363330</MEAN_MOTION><ECCENTRICITY>.0005359</ECCENTRICITY><INCLINATION>51.8790</INCLINATION><RA_OF_ASC_NODE>320.6100</RA_OF_ASC_NODE><ARG_OF_PERICENTER>63.2124</ARG_OF_PERICENTER><MEAN_ANOMALY>296.9410</MEAN_ANOMALY></meanElements><tleParameters><EPHEMERIS_TYPE>0</EPHEMERIS_TYPE><CLASSIFICATION_TYPE>U</CLASSIFICATION_TYPE><NORAD_CAT_ID>65968</NORAD_CAT_ID><ELEMENT_SET_NO>999</ELEMENT_SET_NO><REV_AT_EPOCH>1232</REV_AT_EPOCH><BSTAR>.99744E-3</BSTAR><MEAN_MOTION_DOT>.35715E-3</MEAN_MOTION_DOT><MEAN_MOTION_DDOT>0</MEAN_MOTION_DDOT></tleParameters></data></segment></body></omm>
<omm id="CCSDS_OMM_VERS" version="2.0">
<header><CREATION_DATE/><ORIGINATOR/></header><body><segment><metadata><OBJECT_NAME>KUIPER-00154</OBJECT_NAME><OBJECT_ID>2025-228Y</OBJECT_ID><CENTER_NAME>EARTH</CENTER_NAME><REF_FRAME>TEME</REF_FRAME><TIME_SYSTEM>UTC</TIME_SYSTEM><MEAN_ELEMENT_THEORY>SGP4</MEAN_ELEMENT_THEORY></metadata><data><meanElements><EPOCH>2025-12-25T03:15:33.512256</EPOCH><MEAN_MOTION>15.36323615</MEAN_MOTION><ECCENTRICITY>.0006593</ECCENTRICITY><INCLINATION>51.8801</INCLINATION><RA_OF_ASC_NODE>320.6379</RA_OF_ASC_NODE><ARG_OF_PERICENTER>52.9373</ARG_OF_PERICENTER><MEAN_ANOMALY>307.2215</MEAN_ANOMALY></meanElements><tleParameters><EPHEMERIS_TYPE>0</EPHEMERIS_TYPE><CLASSIFICATION_TYPE>U</CLASSIFICATION_TYPE><NORAD_CAT_ID>65969</NORAD_CAT_ID><ELEMENT_SET_NO>999</ELEMENT_SET_NO><REV_AT_EPOCH>1232</REV_AT_EPOCH><BSTAR>.1113E-2</BSTAR><MEAN_MOTION_DOT>.39877E-3</MEAN_MOTION_DOT><MEAN_MOTION_DDOT>0</MEAN_MOTION_DDOT></tleParameters></data></segment></body></omm>

</ndm>
