KUIPER-00136            
1 65962U 25228R   25359.16668980 -.01078685  00000+0 -57248-1 0  9998
2 65962  51.8858 321.3413 0006795  71.3431   2.6488 15.17515579  1957
KUIPER-00137            
1 65963U 25228S   25359.16668980 -.01289771  00000+0 -47101-1 0  9996
2 65963  51.8842 320.8082 0006791  69.2026 314.6362 15.30460285  2472
KUIPER-00138            
1 65964U 25228T   25358.63246559  .00042339  00000+0  11812-2 0  9997
2 65964  51.8810 323.2598 0008307  70.1091 290.0790 15.36298779 12246
KUIPER-00140            
1 65965U 25228U   25359.16668980 -.00220457  00000+0 -85802-2 0  9994
2 65965  51.8820 321.0725 0008053  62.9150 167.8587 15.26400486  5672
KUIPER-00141            
1 65966U 25228V   25359.12919457  .00032683  00000+0  89435-3 0  9996
2 65966  51.8804 320.5944 0006305  70.1637 290.0028 15.37036242 12327
KUIPER-00146            
1 65967U 25228W   25359.16668980 -.01164559  00000+0 -37746-1 0  9990
2 65967  51.8807 320.6210 0008228  68.7010  39.0068 15.34388535  3947
KUIPER-00149            
1 65968U 25228X   25359.13108896  .00035715  00000+0  99744-3 0  9999
2 65968  51.8790 320.6100 0005359  63.2124 296.9410 15.36363330 12320
KUIPER-00154            
1 65969U 25228Y   25359.13580454  .00039877  00000+0  11130-2 0  9999
2 65969  51.8801 320.6379 0006593  52.9373 307.2215 15.36323615 12325
